#aV2012  2 12  0  0   .00000000      96 DD+AD WGS84 FIT  NGA
## 1675       .00000000   900.00000000 55969  .0000000000000
+   32     1  2  3  4  5  6  7  8  9 10 11 12 13 14 15 16 17
+         18 19 20 21 22 23 24 25 26 27 28 29 30 31 32  0  0
+          0  0  0  0  0  0  0  0  0  0  0  0  0  0  0  0  0
+          0  0  0  0  0  0  0  0  0  0  0  0  0  0  0  0  0
+          0  0  0  0  0  0  0  0  0  0  0  0  0  0  0  0  0
++         0  0  0  0  0  0  0  0  0  0  0  0  0  0  0  0  0
++         0  0  0  0  0  0  0  0  0  0  0  0  0  0  0  0  0
++         0  0  0  0  0  0  0  0  0  0  0  0  0  0  0  0  0
++         0  0  0  0  0  0  0  0  0  0  0  0  0  0  0  0  0
++         0  0  0  0  0  0  0  0  0  0  0  0  0  0  0  0  0
%c cc cc ccc ccc cccc cccc cccc cccc ccccc ccccc ccccc ccccc
%c cc cc ccc ccc cccc cccc cccc cccc ccccc ccccc ccccc ccccc
%f  0.0000000  0.000000000  0.00000000000  0.000000000000000
%f  0.0000000  0.000000000  0.00000000000  0.000000000000000
%i    0    0    0    0      0      0      0      0         0
%i    0    0    0    0      0      0      0      0         0
/*      NGA, ST. LOUIS,MO.                                  
/*   EPHEMERIS COMPUTED FROM  3 DAYS OF DATA                
/* CCCCCCCCCCCCCCCCCCCCCCCCCCCCCCCCCCCCCCCCCCCCCCCCCCCCCCCCC
/* CCCCCCCCCCCCCCCCCCCCCCCCCCCCCCCCCCCCCCCCCCCCCCCCCCCCCCCCC
*  2012  2 12 16  0   .00000000                                                 
P  1  -2227.308835  16676.332015 -20562.734775    209.125294                    
V  1 -24270.935526   9596.774960  10435.602769       .101162                    
P  2  21975.327128 -13678.740022   4684.187044    378.690010                    
V  2   6992.389808   1066.898611 -30820.874864       .015591                    
P  3 -11021.454507  18285.134843  15163.538683      8.647581                    
V  3  -3234.896131 -20228.314631  21682.275627       .050020                    
P  4  25360.836138  -5887.114903  -6313.041385     91.906207                    
V  4  -5818.936188   5854.190527 -29666.004514       .115361                    
P  5  12169.010382  -9957.016692  21391.625893   -281.931017                    
V  5  21631.262268  16567.338327  -4464.825630      -.044871                    
P  6 -13946.943548  13917.970418  17814.879490     29.824470                    
V  6   -725.965440 -22624.860303  17510.754427       .014660                    
P  7  12898.112037  10041.642666  21006.207184     56.621267                    
V  7 -24273.259494  10708.872333   9558.633885       .027586                    
P  8  22471.366753   2542.003711  14448.203661       .599505                    
V  8 -16821.011408   6324.176022  24605.194778       .000424                    
P  9   6427.696694 -17219.568668 -19732.773759    138.083835                    
V  9  22082.928252  -8945.198123  15406.646837       .024470                    
P 10  22841.677982   7064.549912  11731.669067    -28.795297                    
V 10  10416.450509  11305.877631 -26135.428894      -.012708                    
P 11  -6235.292817  20912.075455 -15302.905737   -231.815667                    
V 11 -17173.030489   9224.060680  20426.427253      -.035820                    
P 12  -4939.535582 -19106.088510 -17855.339483     52.048643                    
V 12  18553.048574  12924.694141 -18774.271838       .021723                    
P 13   6472.274835  20156.487644  15846.799248    225.383070                    
V 13  -5615.472322  19627.604985 -22549.746582      -.021803                    
P 14 -14776.979367   -753.515335 -21874.111182    193.608864                    
V 14   4828.165047 -27735.058205  -2418.799260       .013606                    
P 15   3576.749819 -26163.100401   1455.957447    -93.140697                    
V 15   3242.621524   2190.124954  31504.599297       .005092                    
P 16 -12842.631318   8391.990093  21732.767305   -223.090163                    
V 16 -21179.799400 -17480.872611  -5471.333288      -.016603                    
P 17  14554.009765   4405.305738 -21623.588863    149.150342                    
V 17  -4319.633746  27494.566576   2437.780358      -.023108                    
P 18 -19863.678692 -17761.905026   2778.397783    181.276692                    
V 18   4534.550902   -834.923348  30569.206061       .018128                    
P 19  -7809.403911  24895.210819   3692.588517   -235.192629                    
V 19  -2088.770050  -5320.730314  31521.000042      -.038707                    
P 20   8013.578482  19835.245380 -15951.276514     61.792192                    
V 20 -17908.166335  -9271.584597 -20664.585519       .007358                    
P 21 -17562.779405  -7891.854520  18986.704837   -203.917462                    
V 21  20713.423064 -10239.083702  14683.768460      -.025108                    
P 22 -23056.415354  -7551.866589 -10766.772226    142.994865                    
V 22  -9065.480288 -11105.898878  26656.967512       .000372                    
P 23   1339.342043  25490.563404   6649.669376    233.552354                    
V 23  -4036.649838   8036.942655 -30470.896221      -.034032                    
P 24 -22013.487098  -4427.567012  14188.540301   -255.530835                    
V 24 -13420.425724 -12340.990949 -24301.706304       .002349                    
P 25 -15952.300800 -19289.739266  -8977.465620     31.607247                    
V 25  10552.024124   4783.709182 -29055.766322       .002153                    
P 26  12262.769295 -19512.525234  12236.949615   -337.501579                    
V 26  -1199.472445  16727.100407  26940.964305     -1.012259                    
P 27  14019.392239 -16981.819670 -13875.939791    356.101229                    
V 27  17930.004372  -6199.441053  25038.847136       .041508                    
P 28  22507.967187  11319.827140  -8215.746334    112.057017                    
V 28   7278.721954   8652.105801  29638.710523       .039298                    
P 29  -6601.583068 -21458.895699  14288.551185    284.014381                    
V 29   4872.861904 -17456.038490 -24036.873231       .036834                    
P 30 -20144.265924   1748.266878  16872.914166    -42.541868                    
V 30 -17988.663100 -13000.155170 -19711.476501      -.120080                    
P 31 -25278.678074   6994.707048  -4726.135048    207.300463                    
V 31   4989.911656  -4177.608418 -31293.717778       .046348                    
P 32   -836.231449  17888.551425 -19535.757336   -406.456625                    
V 32 -19538.053991 -15923.970566 -13128.255754      -.053153                    
EOF
